{
  "type": "FeatureCollection",
  "features": [
    {
      "type": "Feature",
      "properties": {
        "norad_id": 38250,
        "name": "BEIDOU-2 M3 (C11)",
        "group": "beidou",
        "lat": -10.397900977098447,
        "lon": 138.08994883410807,
        "alt_km": 21520.451184361507,
        "timestamp": "2025-12-17T23:38:07.118993+00:00",
        "meta_object_name": "BEIDOU-2 M3 (C11)",
        "meta_object_id": "2012-018A",
        "meta_epoch": "2025-12-17T03:50:10.442976",
        "meta_mean_motion": 1.86229975,
        "meta_eccentricity": 0.00242741,
        "meta_inclination": 55.916,
        "meta_ra_of_asc_node": 311.0085,
        "meta_arg_of_pericenter": 274.6832,
        "meta_mean_anomaly": 85.0247,
        "meta_ephemeris_type": 0,
        "meta_classification_type": "U",
        "meta_norad_cat_id": 38250,
        "meta_element_set_no": 999,
        "meta_rev_at_epoch": 9255,
        "meta_bstar": 0,
        "meta_mean_motion_dot": -9.2e-07,
        "meta_mean_motion_ddot": 0,
        "tle_line1": "1 38250U 12018A   25351.15984309 -.00000092  00000+0  00000+0 0  9995",
        "tle_line2": "2 38250  55.9160 311.0085 0024274 274.6832  85.0247  1.86229975 92551"
      },
      "geometry": {
        "type": "Point",
        "coordinates": [
          138.08994883410807,
          -10.397900977098447
        ]
      }
    },
    {
      "type": "Feature",
      "properties": {
        "norad_id": 38251,
        "name": "BEIDOU-2 M4 (C12)",
        "group": "beidou",
        "lat": -44.78947108939523,
        "lon": 172.57349191808046,
        "alt_km": 21499.91386261234,
        "timestamp": "2025-12-17T23:38:07.119005+00:00",
        "meta_object_name": "BEIDOU-2 M4 (C12)",
        "meta_object_id": "2012-018B",
        "meta_epoch": "2025-12-17T02:12:20.700000",
        "meta_mean_motion": 1.86229502,
        "meta_eccentricity": 0.00154788,
        "meta_inclination": 55.8177,
        "meta_ra_of_asc_node": 310.2391,
        "meta_arg_of_pericenter": 277.6479,
        "meta_mean_anomaly": 82.1616,
        "meta_ephemeris_type": 0,
        "meta_classification_type": "U",
        "meta_norad_cat_id": 38251,
        "meta_element_set_no": 999,
        "meta_rev_at_epoch": 9255,
        "meta_bstar": 0,
        "meta_mean_motion_dot": -9.2e-07,
        "meta_mean_motion_ddot": 0,
        "tle_line1": "1 38251U 12018B   25351.09190625 -.00000092  00000+0  00000+0 0  9999",
        "tle_line2": "2 38251  55.8177 310.2391 0015478 277.6479  82.1616  1.86229502 92550"
      },
      "geometry": {
        "type": "Point",
        "coordinates": [
          172.57349191808046,
          -44.78947108939523
        ]
      }
    },
    {
      "type": "Feature",
      "properties": {
        "norad_id": 38775,
        "name": "BEIDOU-2 M6 (C14)",
        "group": "beidou",
        "lat": 52.63715714930227,
        "lon": 129.35743235881185,
        "alt_km": 21521.29844666291,
        "timestamp": "2025-12-17T23:38:07.119017+00:00",
        "meta_object_name": "BEIDOU-2 M6 (C14)",
        "meta_object_id": "2012-050B",
        "meta_epoch": "2025-12-16T06:22:47.654112",
        "meta_mean_motion": 1.86230757,
        "meta_eccentricity": 0.00113185,
        "meta_inclination": 56.3814,
        "meta_ra_of_asc_node": 68.9504,
        "meta_arg_of_pericenter": 343.5807,
        "meta_mean_anomaly": 16.4038,
        "meta_ephemeris_type": 0,
        "meta_classification_type": "U",
        "meta_norad_cat_id": 38775,
        "meta_element_set_no": 999,
        "meta_rev_at_epoch": 8990,
        "meta_bstar": 0,
        "meta_mean_motion_dot": -8e-07,
        "meta_mean_motion_ddot": 0,
        "tle_line1": "1 38775U 12050B   25350.26582933 -.00000080  00000+0  00000+0 0  9998",
        "tle_line2": "2 38775  56.3814  68.9504 0011318 343.5807  16.4038  1.86230757 89902"
      },
      "geometry": {
        "type": "Point",
        "coordinates": [
          129.35743235881185,
          52.63715714930227
        ]
      }
    },
    {
      "type": "Feature",
      "properties": {
        "norad_id": 38953,
        "name": "BEIDOU-2 G6 (C02)",
        "group": "beidou",
        "lat": 3.965419352636738,
        "lon": 165.38205378427648,
        "alt_km": 35817.94341537182,
        "timestamp": "2025-12-17T23:38:07.119028+00:00",
        "meta_object_name": "BEIDOU-2 G6 (C02)",
        "meta_object_id": "2012-059A",
        "meta_epoch": "2025-12-17T15:26:17.909376",
        "meta_mean_motion": 1.00269348,
        "meta_eccentricity": 0.00081325,
        "meta_inclination": 3.9614,
        "meta_ra_of_asc_node": 75.4585,
        "meta_arg_of_pericenter": 291.6249,
        "meta_mean_anomaly": 34.9806,
        "meta_ephemeris_type": 0,
        "meta_classification_type": "U",
        "meta_norad_cat_id": 38953,
        "meta_element_set_no": 999,
        "meta_rev_at_epoch": 4808,
        "meta_bstar": 0,
        "meta_mean_motion_dot": -1.53e-06,
        "meta_mean_motion_ddot": 0,
        "tle_line1": "1 38953U 12059A   25351.64326284 -.00000153  00000+0  00000+0 0  9994",
        "tle_line2": "2 38953   3.9614  75.4585 0008132 291.6249  34.9806  1.00269348 48087"
      },
      "geometry": {
        "type": "Point",
        "coordinates": [
          165.38205378427648,
          3.965419352636738
        ]
      }
    },
    {
      "type": "Feature",
      "properties": {
        "norad_id": 40549,
        "name": "BEIDOU-3S IGSO-1S (C31)",
        "group": "beidou",
        "lat": -40.43401065466634,
        "lon": 164.16086372600603,
        "alt_km": 35676.7713914226,
        "timestamp": "2025-12-17T23:38:07.119040+00:00",
        "meta_object_name": "BEIDOU-3S IGSO-1S (C31)",
        "meta_object_id": "2015-019A",
        "meta_epoch": "2025-12-16T22:00:09.125856",
        "meta_mean_motion": 1.00292577,
        "meta_eccentricity": 0.00363578,
        "meta_inclination": 49.5427,
        "meta_ra_of_asc_node": 297.6612,
        "meta_arg_of_pericenter": 193.8033,
        "meta_mean_anomaly": 18.6613,
        "meta_ephemeris_type": 0,
        "meta_classification_type": "U",
        "meta_norad_cat_id": 40549,
        "meta_element_set_no": 999,
        "meta_rev_at_epoch": 3924,
        "meta_bstar": 0,
        "meta_mean_motion_dot": -1.91e-06,
        "meta_mean_motion_ddot": 0,
        "tle_line1": "1 40549U 15019A   25350.91677229 -.00000191  00000+0  00000+0 0  9996",
        "tle_line2": "2 40549  49.5427 297.6612 0036357 193.8033  18.6613  1.00292577 39245"
      },
      "geometry": {
        "type": "Point",
        "coordinates": [
          164.16086372600603,
          -40.43401065466634
        ]
      }
    },
    {
      "type": "Feature",
      "properties": {
        "norad_id": 40748,
        "name": "BEIDOU-3S M2S (C58)",
        "group": "beidou",
        "lat": 53.557903102792324,
        "lon": 57.00768037734531,
        "alt_km": 21555.592309246433,
        "timestamp": "2025-12-17T23:38:07.119052+00:00",
        "meta_object_name": "BEIDOU-3S M2S (C58)",
        "meta_object_id": "2015-037A",
        "meta_epoch": "2025-12-11T22:15:26.437248",
        "meta_mean_motion": 1.8622897,
        "meta_eccentricity": 0.00123447,
        "meta_inclination": 55.0397,
        "meta_ra_of_asc_node": 308.4912,
        "meta_arg_of_pericenter": 267.8245,
        "meta_mean_anomaly": 92.025,
        "meta_ephemeris_type": 0,
        "meta_classification_type": "U",
        "meta_norad_cat_id": 40748,
        "meta_element_set_no": 999,
        "meta_rev_at_epoch": 7063,
        "meta_bstar": 0,
        "meta_mean_motion_dot": -8.9e-07,
        "meta_mean_motion_ddot": 0,
        "tle_line1": "1 40748U 15037A   25345.92738932 -.00000089  00000+0  00000+0 0  9997",
        "tle_line2": "2 40748  55.0397 308.4912 0012344 267.8245  92.0250  1.86228970 70636"
      },
      "geometry": {
        "type": "Point",
        "coordinates": [
          57.00768037734531,
          53.557903102792324
        ]
      }
    },
    {
      "type": "Feature",
      "properties": {
        "norad_id": 40749,
        "name": "BEIDOU-3S M1S (C57)",
        "group": "beidou",
        "lat": -40.70124472506398,
        "lon": -88.73023379446511,
        "alt_km": 21524.528357709733,
        "timestamp": "2025-12-17T23:38:07.119063+00:00",
        "meta_object_name": "BEIDOU-3S M1S (C57)",
        "meta_object_id": "2015-037B",
        "meta_epoch": "2025-12-11T14:53:54.000096",
        "meta_mean_motion": 1.86253918,
        "meta_eccentricity": 0.00034406,
        "meta_inclination": 55.0364,
        "meta_ra_of_asc_node": 308.4915,
        "meta_arg_of_pericenter": 358.1692,
        "meta_mean_anomaly": 1.8205,
        "meta_ephemeris_type": 0,
        "meta_classification_type": "U",
        "meta_norad_cat_id": 40749,
        "meta_element_set_no": 999,
        "meta_rev_at_epoch": 7063,
        "meta_bstar": 0,
        "meta_mean_motion_dot": -8.8e-07,
        "meta_mean_motion_ddot": 0,
        "tle_line1": "1 40749U 15037B   25345.62076389 -.00000088  00000+0  00000+0 0  9995",
        "tle_line2": "2 40749  55.0364 308.4915 0003440 358.1692   1.8205  1.86253918 70639"
      },
      "geometry": {
        "type": "Point",
        "coordinates": [
          -88.73023379446511,
          -40.70124472506398
        ]
      }
    }
  ]
}